[{"OBJECT_NAME":"STARLINK-2518","OBJECT_ID":"2021-036BK","EPOCH":"2026-03-10T00:00:02.999808","MEAN_MOTION":15.27302639,"ECCENTRICITY":0.00013317,"INCLINATION":53.1456,"RA_OF_ASC_NODE":99.422,"ARG_OF_PERICENTER":102.7597,"MEAN_ANOMALY":329.0841,"EPHEMERIS_TYPE":0,"CLASSIFICATION_TYPE":"U","NORAD_CAT_ID":48333,"ELEMENT_SET_NO":999,"REV_AT_EPOCH":578,"BSTAR":0.061653293,"MEAN_MOTION_DOT":0.0183578,"MEAN_MOTION_DDOT":0},{"OBJECT_NAME":"IRIDIUM 82","OBJECT_ID":"1998-051A","EPOCH":"2026-03-09T17:14:32.931744","MEAN_MOTION":15.58179803,"ECCENTRICITY":0.0047439,"INCLINATION":86.3594,"RA_OF_ASC_NODE":336.9899,"ARG_OF_PERICENTER":358.1791,"MEAN_ANOMALY":1.9292,"EPHEMERIS_TYPE":0,"CLASSIFICATION_TYPE":"U","NORAD_CAT_ID":25467,"ELEMENT_SET_NO":999,"REV_AT_EPOCH":46488,"BSTAR":0.0011204022,"MEAN_MOTION_DOT":0.00089782,"MEAN_MOTION_DDOT":0}]
